      2.10          N: GNSS NAV DATA                        RINEX VERSION / TYPE
fic2rin                                 03/16/2021 00:17:20 PGM / RUN BY / DATE
                                                            END OF HEADER
 9 21  3 15 10  0  0.0-3.312057815492e-04-3.183231456205e-12 0.000000000000e+00
    2.400000000000e+01-4.906250000000e+01 4.692338311868e-09-3.087560668175e+00
   -2.419576048851e-06 1.876075170003e-03 1.095794141293e-05 5.153556026459e+03
    1.224000000000e+05 9.499490261078e-08-1.155989439829e-01 8.009374141693e-08
    9.536922197376e-01 1.656875000000e+02 1.831403208632e+00-8.072479108300e-09
   -3.396570052205e-10 1.000000000000e+00 2.149000000000e+03 0.000000000000e+00
    2.400000000000e+00 0.000000000000e+00 1.396983861923e-09 2.400000000000e+01
    1.152000000000e+05 4.000000000000e+00
 8 21  3 15 10  0  0.0-1.380313187838e-05-1.477928890381e-12 0.000000000000e+00
    3.800000000000e+01-5.471875000000e+01 4.071241012101e-09 2.766533664843e+00
   -2.821907401085e-06 6.293285405263e-03 1.088343560696e-05 5.153572710037e+03
    1.224000000000e+05-5.774199962616e-08 3.025788222282e+00 1.862645149231e-08
    9.682230573253e-01 1.738750000000e+02-1.352802772523e-03-7.779609766259e-09
   -2.892977646988e-10 1.000000000000e+00 2.149000000000e+03 0.000000000000e+00
    2.400000000000e+00 0.000000000000e+00 5.122274160385e-09 3.800000000000e+01
    1.152000000000e+05 4.000000000000e+00
 5 21  3 15 10  0  0.0-3.627268597484e-05-1.023181539495e-12 0.000000000000e+00
    1.010000000000e+02-1.165625000000e+01 5.217717338871e-09-2.952004319263e+00
   -7.767230272293e-07 5.988366669044e-03 3.404915332794e-06 5.153828113556e+03
    1.224000000000e+05 1.303851604462e-08-1.181510714275e+00-1.229345798492e-07
    9.552123379137e-01 3.125000000000e+02 8.802541695708e-01-8.461066723105e-09
    1.964367538078e-11 1.000000000000e+00 2.149000000000e+03 0.000000000000e+00
    2.400000000000e+00 0.000000000000e+00-1.117587089539e-08 1.010000000000e+02
    1.152000000000e+05 4.000000000000e+00
13 21  3 15 10  0  0.0 1.080599613488e-04 4.433786671143e-12 0.000000000000e+00
    2.000000000000e+01-3.915625000000e+01 4.250534194668e-09 2.114386923445e+00
   -2.067536115646e-06 4.911406897008e-03 1.218728721142e-05 5.153685754776e+03
    1.224000000000e+05-4.470348358154e-08 3.180795423183e-02-1.322478055954e-07
    9.685957722789e-01 1.474375000000e+02 1.010584761517e+00-7.779609766259e-09
   -2.882262914962e-10 1.000000000000e+00 2.149000000000e+03 0.000000000000e+00
    2.400000000000e+00 0.000000000000e+00-1.117587089539e-08 2.000000000000e+01
    1.152000000000e+05 4.000000000000e+00
12 21  3 15 10  0  0.0-1.419568434358e-05-5.343281372916e-12 0.000000000000e+00
    8.700000000000e+01-1.893750000000e+01 4.686266630387e-09-7.587158527950e-01
   -9.238719940186e-07 8.473316906020e-03 3.550201654434e-06 5.153770629883e+03
    1.224000000000e+05-4.842877388000e-08 2.067151226792e+00 1.583248376846e-07
    9.741876142530e-01 3.181250000000e+02 1.185151727195e+00-8.451423464282e-09
   -1.989368579472e-10 1.000000000000e+00 2.149000000000e+03 0.000000000000e+00
    2.400000000000e+00 0.000000000000e+00-1.257285475731e-08 8.700000000000e+01
    1.152000000000e+05 4.000000000000e+00
10 21  3 15 10  0  0.0-8.139153942466e-05-7.958078640513e-12 0.000000000000e+00
    8.800000000000e+01-1.837500000000e+01 4.820200780710e-09-1.507685956006e+00
   -9.741634130478e-07 6.539498572238e-03 3.164634108543e-06 5.153667018890e+03
    1.224000000000e+05 8.940696716309e-08-1.148542964442e+00 3.725290298462e-09
    9.681745294067e-01 3.190625000000e+02-2.573049848848e+00-8.346776248162e-09
    7.321733551020e-11 1.000000000000e+00 2.149000000000e+03 0.000000000000e+00
    2.400000000000e+00 0.000000000000e+00 2.328306436539e-09 8.800000000000e+01
    1.152000000000e+05 4.000000000000e+00
 6 21  3 15 10  0  0.0 9.709037840366e-07 1.932676241267e-12 0.000000000000e+00
    9.500000000000e+01 6.534375000000e+01 3.953021802082e-09 8.391224532526e-01
    3.486871719360e-06 2.324360888451e-03 9.609386324883e-06 5.153725255966e+03
    1.224000000000e+05 0.000000000000e+00-2.192564188893e+00-4.284083843231e-08
    9.829594597727e-01 2.020937500000e+02-1.032570421903e+00-7.841398054275e-09
    5.800241603344e-10 1.000000000000e+00 2.149000000000e+03 0.000000000000e+00
    2.400000000000e+00 0.000000000000e+00 3.725290298462e-09 9.500000000000e+01
    1.152000000000e+05 4.000000000000e+00
 7 21  3 15 10  0  0.0 9.051477536559e-05 1.239186531166e-11 0.000000000000e+00
    8.200000000000e+01 8.346875000000e+01 4.858416658269e-09-5.731039799669e-02
    4.418194293976e-06 1.456802850589e-02 8.402392268181e-06 5.153599798203e+03
    1.224000000000e+05 2.048909664154e-08 9.568274477495e-01 1.993030309677e-07
    9.519456389169e-01 2.112500000000e+02-2.348185560840e+00-8.520354906982e-09
    2.821546100149e-10 1.000000000000e+00 2.149000000000e+03 0.000000000000e+00
    3.400000000000e+00 0.000000000000e+00-1.117587089539e-08 8.200000000000e+01
    1.152000000000e+05 4.000000000000e+00
11 21  3 15 10  0  0.0 1.656357198954e-06 1.068656274583e-11 0.000000000000e+00
    1.600000000000e+01 2.425000000000e+01 5.385938631677e-09-1.680800548318e-01
    1.091510057449e-06 1.530290883966e-02 1.125037670135e-05 5.154079088211e+03
    1.224000000000e+05-1.732259988785e-07-2.677754504801e+00-2.402812242508e-07
    9.145244577745e-01 1.409687500000e+02 2.086765208776e+00-8.640002747937e-09
    2.450102056585e-10 1.000000000000e+00 2.149000000000e+03 0.000000000000e+00
    2.400000000000e+00 6.300000000000e+01-1.257285475731e-08 1.600000000000e+01
    1.152000000000e+05 4.000000000000e+00
31 21  3 15 10  0  0.0-1.057074405253e-04-2.273736754432e-12 0.000000000000e+00
    7.600000000000e+01 7.243750000000e+01 4.623764026903e-09-5.771397730338e-01
    3.784894943237e-06 9.950514533557e-03 8.303672075272e-06 5.153757707596e+03
    1.224000000000e+05 1.750886440277e-07 9.735861530397e-01 1.117587089539e-08
    9.562656038208e-01 2.179687500000e+02 2.527831052481e-01-8.239986085638e-09
    2.914407111040e-10 1.000000000000e+00 2.149000000000e+03 0.000000000000e+00
    2.400000000000e+00 0.000000000000e+00-1.303851604462e-08 7.600000000000e+01
    1.152000000000e+05 4.000000000000e+00
27 21  3 15 10  0  0.0-9.434623643756e-05-7.162270776462e-12 0.000000000000e+00
    9.500000000000e+01-5.553125000000e+01 3.783729036073e-09 2.726160487641e+00
   -2.885237336159e-06 9.236849960871e-03 1.082383096218e-05 5.153685304642e+03
    1.224000000000e+05-6.519258022308e-08 3.042421779319e+00-1.154839992523e-07
    9.767840744060e-01 1.803750000000e+02 5.871900480339e-01-7.634246568441e-09
   -2.389385241772e-10 1.000000000000e+00 2.149000000000e+03 0.000000000000e+00
    2.400000000000e+00 0.000000000000e+00 1.862645149231e-09 9.500000000000e+01
    1.152000000000e+05 4.000000000000e+00
30 21  3 15 10  0  0.0-3.986987285316e-04-5.570655048359e-12 0.000000000000e+00
    8.500000000000e+01 8.406250000000e+01 5.086640450421e-09-1.502966983122e-01
    4.170462489128e-06 4.959848360159e-03 8.452683687210e-06 5.153737514496e+03
    1.224000000000e+05 4.656612873077e-08 9.750870470094e-01 7.078051567078e-08
    9.371610479479e-01 2.013437500000e+02-2.834280236611e+00-8.471424297397e-09
    2.864405028253e-10 1.000000000000e+00 2.149000000000e+03 0.000000000000e+00
    2.400000000000e+00 0.000000000000e+00 3.725290298462e-09 8.500000000000e+01
    1.152000000000e+05 4.000000000000e+00
15 21  3 15 10  0  0.0-1.630038022995e-04 2.614797267597e-12 0.000000000000e+00
    8.000000000000e+01-7.831250000000e+01 5.315935715775e-09 1.778939834202e+00
   -4.116445779800e-06 1.306316279806e-02 9.946525096893e-06 5.153585569382e+03
    1.224000000000e+05-2.831220626831e-07-2.126772192713e-01-1.974403858185e-07
    9.292811669878e-01 1.757500000000e+02 9.718725683363e-01-8.436065681712e-09
   -4.225175995540e-10 1.000000000000e+00 2.149000000000e+03 0.000000000000e+00
    2.400000000000e+00 0.000000000000e+00-1.071020960808e-08 8.000000000000e+01
    1.152000000000e+05 4.000000000000e+00
22 21  3 15 10  0  0.0-6.600385531783e-04 8.071765478235e-12 0.000000000000e+00
    6.500000000000e+01-7.593750000000e+00 5.688094074807e-09 1.732042746030e+00
   -4.786998033524e-07 7.043804973364e-03 2.613291144371e-06 5.153578397751e+03
    1.224000000000e+05 1.583248376846e-07-1.242550538109e+00-1.676380634308e-08
    9.336973363104e-01 3.167500000000e+02-1.019723897491e+00-8.731792285626e-09
   -1.464346710204e-11 1.000000000000e+00 2.149000000000e+03 0.000000000000e+00
    2.400000000000e+00 0.000000000000e+00-1.816079020500e-08 6.500000000000e+01
    1.152000000000e+05 4.000000000000e+00
32 21  3 15 10  0  0.0 2.119597047567e-05 6.821210263297e-13 0.000000000000e+00
    5.500000000000e+01-6.012500000000e+01 4.515188075707e-09-2.813434833094e+00
   -3.060325980186e-06 4.719958873466e-03 1.080892980099e-05 5.153655046463e+03
    1.224000000000e+05-1.862645149231e-08-1.058860003369e-01-1.303851604462e-07
    9.577013116238e-01 1.682500000000e+02-2.414872595171e+00-7.950331163205e-09
   -3.557291032593e-10 1.000000000000e+00 2.149000000000e+03 0.000000000000e+00
    2.400000000000e+00 0.000000000000e+00 4.656612873077e-10 5.500000000000e+01
    1.152000000000e+05 4.000000000000e+00
21 21  3 15 10  0  0.0 1.032766886055e-04 3.069544618484e-12 0.000000000000e+00
    3.700000000000e+01 8.015625000000e+01 4.414112436929e-09 2.923707162150e+00
    4.004687070847e-06 2.425008814316e-02 9.329989552498e-06 5.153714681625e+03
    1.224000000000e+05 3.557652235031e-07-2.266062277218e+00 2.346932888031e-07
    9.563986840155e-01 1.896875000000e+02-1.172108788476e+00-7.727107579332e-09
    4.289464387695e-10 1.000000000000e+00 2.149000000000e+03 0.000000000000e+00
    2.400000000000e+00 0.000000000000e+00-1.024454832077e-08 3.700000000000e+01
    1.152000000000e+05 4.000000000000e+00
